1 44245U 19029L   20001.58334491  .00494003  00000-0  26794-1 0  9999
2 44245  52.9972 251.9485 0001310  72.6810 126.9519 15.12045766 33677
1 44245U 19029L   20001.91667824  .00038585  00000-0  22185-2 0  9995
2 44245  52.9973 250.4382 0001453  66.7354 148.4739 15.12132223 33727
1 44245U 19029L   20002.25001157 -.00011920  00000-0 -66783-3 0  9993
2 44245  52.9974 248.9265 0001409  61.1228 169.6342 15.12129783 33777
1 44245U 19029L   20002.91668981 -.00019024 +00000-0 -10772-2 0  9999
2 44245 052.9976 245.9031 0001500 064.2622 197.6735 15.12126482001787
1 44245U 19029L   20003.58334491  .00388685  00000-0  21182-1 0  9995
2 44245  52.9979 242.8781 0001434  70.2153 222.7906 15.12036650 33984
1 44245U 19029L   20003.91667824 -.00018706  00000-0 -10588-2 0  9996
2 44245  52.9981 241.3681 0001602  63.6850 244.8691 15.12129646 34038
1 44245U 19029L   20004.25001157 -.00026507  00000-0 -15077-2 0  9991
2 44245  52.9984 239.8561 0001633  64.1317 260.0094 15.12163287 34089
1 44245U 19029L   20004.33334491  .00246803  00000-0  13708-1 0  9999
2 44245  52.9985 239.4778 0001484  63.7276 354.2880 15.12090987 34095
1 44245U 19029L   20006.25001157 -.00035191  00000-0 -20103-2 0  9998
2 44245  52.9989 230.7864 0001674  65.1518 352.3813 15.12151809 34383
1 44245U 19029L   20006.58334491  .00457832  00000-0  24943-1 0  9997
2 44245  52.9989 229.2737 0001523  73.8347 359.2916 15.12044897 34438
1 44245U 19029L   20006.91668981 -.00011677  00000-0 -65368-3 0  9991
2 44245  52.9988 227.7638 0001739  66.7851  21.9722 15.12138638 34480
1 44245U 19029L   20007.58334491  .00249898  00000-0  13875-1 0  9991
2 44245  52.9986 224.7390 0001562  74.4891  45.3652 15.12087515 34584
1 44245U 19029L   20007.91667824 -.00005261  00000-0 -28487-3 0  9990
2 44245  52.9984 223.2292 0001727  68.4612  66.9688 15.12135357 34636
1 44245U 19029L   20008.91667824 +.00003274 +00000-0 +20495-3 0  9992
2 44245 052.9976 218.6945 0001612 068.5745 113.5741 15.12101439001762
1 44245U 19029L   20009.25001157  .00044664  00000-0  25650-2 0  9996
2 44245  52.9971 217.1818 0001518  70.3931 127.2915 15.12106002 34833
1 44245U 19029L   20009.91667824 +.00013128 +00000-0 +76955-3 0  9994
2 44245 052.9967 214.1598 0001640 069.9176 158.8575 15.12095410001792
1 44245U 19029L   20010.25001157  .00089648  00000-0  51006-2 0  9993
2 44245  52.9964 212.6469 0001547  71.3322 172.9799 15.12095312 34988
1 44245U 19029L   20010.58334491  .00239520  00000-0  13329-1 0  9990
2 44245  52.9963 211.1348 0001560  78.3779 181.4748 15.12060281 35038
1 44245U 19029L   20010.91667824  .00020575  00000-0  11942-2 0  9994
2 44245  52.9962 209.6247 0001558  68.8035 206.6463 15.12123701 35089
1 44245U 19029L   20011.91668981  .00026014  00000-0  15043-2 0  9990
2 44245  52.9962 205.0894 0001604  68.7217 253.5279 15.12122039 35247
1 44245U 19029L   20012.25001157  .00373924  00000-0  20400-1 0  9991
2 44245  52.9962 203.5762 0001536  67.4305 270.3369 15.12073740 35298
1 44245U 19029L   20012.58334491  .00144802  00000-0  81597-2 0  9993
2 44245  52.9964 202.0642 0001551  75.3772 277.9618 15.12118174 35341
1 44245U 19029L   20012.91668981  .00031678  00000-0  18267-2 0  9994
2 44245  52.9966 200.5540 0001646  68.1309 300.8604 15.12121662 35396
1 44245U 19029L   20013.91667824  .00038069  00000-0  21916-2 0  9996
2 44245  52.9973 196.0189 0001563  65.7699 349.8776 15.12092904 35541
1 44245U 19029L   20014.58334491  .00076927  00000-0  43852-2 0  9999
2 44245  52.9977 192.9941 0001500  72.0314  14.7056 15.12110721 35640
1 44245U 19029L   20014.91667824  .00050343  00000-0  28878-2 0  9990
2 44245  52.9979 191.4840 0001571  64.9634  37.3371 15.12092357 35697
1 44245U 19029L   20015.25001157  .00453234  00000-0  24473-1 0  9991
2 44245  52.9981 189.9708 0001424  62.7571  55.1005 15.12034843 35742
1 44245U 19029L   20015.58334491  .00070614  00000-0  40296-2 0  9996
2 44245  52.9982 188.4594 0001508  71.7942  61.6035 15.12116788 35794
1 44245U 19029L   20015.91667824  .00049741  00000-0  28535-2 0  9991
2 44245  52.9982 186.9492 0001564  65.0457  83.9184 15.12094886 35845
1 44245U 19029L   20016.25001157 +.00256128 +00000-0 +14216-1 0  9999
2 44245 052.9983 185.4360 0001435 066.8127 097.7103 15.12067075001795
1 44245U 19029L   20016.58335648 +.00085995 +00000-0 +48933-2 0  9996
2 44245 052.9983 183.9248 0001487 071.8266 108.3064 15.12114975001797
1 44245U 19029L   20016.75001157 -.00015717  00000-0 -88662-3 0  9991
2 44245  52.9981 183.1700 0001558  68.9393 298.9123 15.12124102 35979
1 44245U 19029L   20017.25001157  .00223866  00000-0  12483-1 0  9997
2 44245  52.9980 180.9011 0001419  69.0703 142.1302 15.12070342 36045
1 44245U 19029L   20017.58334491  .00026014  00000-0  15041-2 0  9993
2 44245  52.9979 179.3903 0001451  73.9002 152.8473 15.12126438 36097
1 44245U 19029L   20017.91667824  .00035664  00000-0  20542-2 0  9992
2 44245  52.9975 177.8797 0001471  67.1370 175.1794 15.12104851 36147
1 44245U 19029L   20018.58334491 -.00014700 +00000-0 -82709-3 0  9991
2 44245 052.9972 174.8555 0001533 077.0489 196.4015 15.12163760001781
1 44245U 19029L   20018.91667824  .00026196  00000-0  15139-2 0  9999
2 44245  52.9967 173.3446 0001545  70.5497 218.5057 15.12140173 36297
1 44245U 19029L   20019.25001157 +.00131631 +00000-0 +74340-2 0  9998
2 44245 052.9965 171.8312 0001483 078.4058 226.2558 15.12112158001792
1 44245U 19029L   20019.58334491  .00104078  00000-0  59025-2 0  9992
2 44245  52.9964 170.3204 0001468  75.7901 244.4567 15.12122427 36403
1 44245U 19029L   20019.91667824  .00016656  00000-0  97074-3 0  9999
2 44245  52.9959 168.8094 0001392  69.4930 266.3169 15.12116010 36451
1 44245U 19029L   20020.58334491 +.00099007 +00000-0 +56216-2 0  9998
2 44245 052.9958 165.7855 0001416 075.0697 291.8562 15.12110404001803
1 44245U 19029L   20020.91667824  .00011583  00000-0  68072-3 0  9991
2 44245  52.9955 164.2743 0001383  68.8654 313.6215 15.12118289 36609
1 44245U 19029L   20021.25001157 +.00236618 +00000-0 +13173-1 0  9998
2 44245 052.9956 162.7608 0001341 076.8512 321.2102 15.12060400001804
1 44245U 19029L   20021.58334491 +.00115331 +00000-0 +65312-2 0  9995
2 44245 052.9956 161.2504 0001428 073.4866 340.1221 15.12107906001809
1 44245U 19029L   20021.91667824  .00024736  00000-0  14316-2 0  9997
2 44245  52.9956 159.7390 0001399  67.3608   1.8088 15.12119201 36752
1 44245U 19029L   20022.25001157  .00601698  00000-0  32607-1 0  9996
2 44245  52.9957 158.2256 0001362  69.9058  14.8480 15.12000250 36804
1 44245U 19029L   20022.58334491 -.00019064  00000-0 -10792-2 0  9996
2 44245  52.9959 156.7153 0001437  72.3460  27.9508 15.12137307 36858
1 44245U 19029L   20023.25001157  .00858416  00000-0  45948-1 0  9991
2 44245  52.9962 153.6905 0001394  61.9704  69.4872 15.11967458 36953
1 44245U 19029L   20023.50001157  .00018997  00000-0  11037-2 0  9994
2 44245  52.9966 152.5577 0001433  72.1797 340.9276 15.12139158 36998
1 44245U 19029L   20023.58334491 -.00026608 +00000-0 -15144-2 0  9995
2 44245 052.9966 152.1803 0001454 069.9110 077.0935 15.12142343001792
1 44245U 19029L   20023.91667824 -.00009682  00000-0 -53888-3 0  9992
2 44245  52.9968 150.6687 0001437  65.1373  97.4373 15.12141287 37053
1 44245U 19029L   20024.25001157  .00462507  00000-0  25187-1 0  9997
2 44245  52.9970 149.1555 0001415  65.4202 112.7487 15.12039411 37101
1 44245U 19029L   20024.58334491 -.00021404  00000-0 -12139-2 0  9996
2 44245  52.9973 147.6454 0001462  67.7514 125.9810 15.12145097 37157
1 44245U 19029L   20025.58335648 -.00018021  00000-0 -10193-2 0  9991
2 44245  52.9978 143.1106 0001535  67.5251 173.0165 15.12128508 37306
1 44245U 19029L   20026.41667824  .00010519  00000-0  61973-3 0  9993
2 44245  52.9981 139.3310 0001491  72.8767  26.4658 15.12124336 37433
1 44245U 19029L   20026.91667824 -.00035450  00000-0 -20263-2 0  9997
2 44245  52.9978 137.0642 0001470  66.7604 235.9115 15.12134727 37510
1 44245U 19029L   20027.25001157  .00445595  00000-0  24097-1 0  9997
2 44245  52.9979 135.5514 0001538  72.4965 245.7490 15.12020026 37567
1 44245U 19029L   20027.58334491 -.00013205  00000-0 -74200-3 0  9997
2 44245  52.9978 134.0416 0001492  67.6524 266.1383 15.12121782 37612
1 44245U 19029L   20027.91667824 -.00038489 +00000-0 -22022-2 0  9998
2 44245 052.9975 132.5294 0001413 067.0853 282.2557 15.12138538001797
1 44245U 19029L   20028.25001157  .00183105  00000-0  10270-1 0  9992
2 44245  52.9975 131.0169 0001401  75.3445 289.5652 15.12077136 37711
1 44245U 19029L   20028.58334491 -.00012254  00000-0 -68718-3 0  9998
2 44245  52.9972 129.5070 0001449  67.7230 312.7429 15.12123452 37769
1 44245U 19029L   20028.91667824 -.00038645 +00000-0 -22112-2 0  9993
2 44245 052.9968 127.9946 0001372 068.2114 327.8058 15.12138884001794
1 44245U 19029L   20029.25001157  .00533666  00000-0  28807-1 0  9999
2 44245  52.9967 126.4821 0001564  75.7509 335.8460 15.12044468 37860
1 44245U 19029L   20029.41667824  .00091923  00000-0  52212-2 0  9999
2 44245  52.9966 125.7272 0001523  72.9397 166.4426 15.12141839 37882
1 44245U 19029L   20029.91667824  .00074293  00000-0  42326-2 0  9990
2 44245  52.9962 123.4594 0001507  69.4124  13.3706 15.12149668 37969
1 44245U 19029L   20030.25001157  .00133929  00000-0  75579-2 0  9998
2 44245  52.9961 121.9468 0001478  76.9154  21.4737 15.12127201 38014
1 44245U 19029L   20030.50002315 -.00025203  00000-0 -14335-2 0  9993
2 44245  52.9958 120.8144 0001405  68.5822 311.5526 15.12136901 38058
1 44245U 19029L   20031.41667824 -.00019775  00000-0 -11200-2 0  9991
2 44245  52.9956 116.6567 0001386  68.9674 263.9149 15.12143334 38199
1 44245U 19029L   20031.58334491 +.00018984 +00000-0 +11035-2 0  9995
2 44245 052.9957 115.9016 0001446 064.0590 096.6179 15.12121288001796
1 44245U 19029L   20031.91667824 +.00078472 +00000-0 +44697-2 0  9999
2 44245 052.9957 114.3886 0001393 064.3348 111.9108 15.12128592001797
1 44245U 19029L   20032.00001157  .00270724  00000-0  14990-1 0  9997
2 44245  52.9958 114.0102 0001458  64.8295 205.3215 15.12077294 38276
